{
  "type": "FeatureCollection",
  "features": [
    {
      "type": "Feature",
      "properties": {
        "norad_id": 25590,
        "name": "COSMOS 2361",
        "group": "musson",
        "lat": 38.27782966081741,
        "lon": -15.962796301729536,
        "alt_km": 1005.3281749197013,
        "timestamp": "2025-12-20T09:36:01.915224+00:00",
        "meta_object_name": "COSMOS 2361",
        "meta_object_id": "1998-076A",
        "meta_epoch": "2025-12-20T00:58:40.145952",
        "meta_mean_motion": 13.73218347,
        "meta_eccentricity": 0.0030158,
        "meta_inclination": 82.9341,
        "meta_ra_of_asc_node": 338.6861,
        "meta_arg_of_pericenter": 244.4261,
        "meta_mean_anomaly": 179.0075,
        "meta_ephemeris_type": 0,
        "meta_classification_type": "U",
        "meta_norad_cat_id": 25590,
        "meta_element_set_no": 999,
        "meta_rev_at_epoch": 35211,
        "meta_bstar": 3.9175e-05,
        "meta_mean_motion_dot": 5.1e-07,
        "meta_mean_motion_ddot": 0,
        "tle_line1": "1 25590U 98076A   25354.04074243  .00000051  00000+0  39175-4 0  9998",
        "tle_line2": "2 25590  82.9341 338.6861 0030158 244.4261 179.0075 13.73218347352115"
      },
      "geometry": {
        "type": "Point",
        "coordinates": [
          -15.962796301729536,
          38.27782966081741
        ]
      }
    },
    {
      "type": "Feature",
      "properties": {
        "norad_id": 26818,
        "name": "COSMOS 2378",
        "group": "musson",
        "lat": 43.128458932212496,
        "lon": 167.36632182347145,
        "alt_km": 964.5935732716753,
        "timestamp": "2025-12-20T09:36:01.915246+00:00",
        "meta_object_name": "COSMOS 2378",
        "meta_object_id": "2001-023A",
        "meta_epoch": "2025-12-19T10:45:28.864800",
        "meta_mean_motion": 13.74142545,
        "meta_eccentricity": 0.0032813,
        "meta_inclination": 82.927,
        "meta_ra_of_asc_node": 354.7502,
        "meta_arg_of_pericenter": 186.0025,
        "meta_mean_anomaly": 284.9718,
        "meta_ephemeris_type": 0,
        "meta_classification_type": "U",
        "meta_norad_cat_id": 26818,
        "meta_element_set_no": 999,
        "meta_rev_at_epoch": 23015,
        "meta_bstar": 3.5693e-05,
        "meta_mean_motion_dot": 4.9e-07,
        "meta_mean_motion_ddot": 0,
        "tle_line1": "1 26818U 01023A   25353.44825075  .00000049  00000+0  35693-4 0  9996",
        "tle_line2": "2 26818  82.9270 354.7502 0032813 186.0025 284.9718 13.74142545230156"
      },
      "geometry": {
        "type": "Point",
        "coordinates": [
          167.36632182347145,
          43.128458932212496
        ]
      }
    },
    {
      "type": "Feature",
      "properties": {
        "norad_id": 27436,
        "name": "COSMOS 2389",
        "group": "musson",
        "lat": 10.998637918229516,
        "lon": -57.30802152504623,
        "alt_km": 951.852644958567,
        "timestamp": "2025-12-20T09:36:01.915258+00:00",
        "meta_object_name": "COSMOS 2389",
        "meta_object_id": "2002-026A",
        "meta_epoch": "2025-12-19T21:35:03.860736",
        "meta_mean_motion": 13.75155415,
        "meta_eccentricity": 0.00473688,
        "meta_inclination": 82.9508,
        "meta_ra_of_asc_node": 301.6845,
        "meta_arg_of_pericenter": 41.2545,
        "meta_mean_anomaly": 12.9914,
        "meta_ephemeris_type": 0,
        "meta_classification_type": "U",
        "meta_norad_cat_id": 27436,
        "meta_element_set_no": 999,
        "meta_rev_at_epoch": 18247,
        "meta_bstar": 3.2199124e-05,
        "meta_mean_motion_dot": 4.6e-07,
        "meta_mean_motion_ddot": 0,
        "tle_line1": "1 27436U 02026A   25353.89935024  .00000046  00000+0  32199-4 0  9997",
        "tle_line2": "2 27436  82.9508 301.6845 0047368  41.2545  12.9914 13.75155415182477"
      },
      "geometry": {
        "type": "Point",
        "coordinates": [
          -57.30802152504623,
          10.998637918229516
        ]
      }
    },
    {
      "type": "Feature",
      "properties": {
        "norad_id": 27818,
        "name": "COSMOS 2398",
        "group": "musson",
        "lat": -67.00877174952475,
        "lon": 104.01438938980552,
        "alt_km": 1020.4213998240366,
        "timestamp": "2025-12-20T09:36:01.915269+00:00",
        "meta_object_name": "COSMOS 2398",
        "meta_object_id": "2003-023A",
        "meta_epoch": "2025-12-19T20:27:55.410624",
        "meta_mean_motion": 13.72386446,
        "meta_eccentricity": 0.00327313,
        "meta_inclination": 82.9484,
        "meta_ra_of_asc_node": 267.4568,
        "meta_arg_of_pericenter": 92.8147,
        "meta_mean_anomaly": 332.5988,
        "meta_ephemeris_type": 0,
        "meta_classification_type": "U",
        "meta_norad_cat_id": 27818,
        "meta_element_set_no": 999,
        "meta_rev_at_epoch": 12914,
        "meta_bstar": 5.2249183e-05,
        "meta_mean_motion_dot": 6.3e-07,
        "meta_mean_motion_ddot": 0,
        "tle_line1": "1 27818U 03023A   25353.85272466  .00000063  00000+0  52249-4 0  9996",
        "tle_line2": "2 27818  82.9484 267.4568 0032731  92.8147 332.5988 13.72386446129147"
      },
      "geometry": {
        "type": "Point",
        "coordinates": [
          104.01438938980552,
          -67.00877174952475
        ]
      }
    },
    {
      "type": "Feature",
      "properties": {
        "norad_id": 28380,
        "name": "COSMOS 2407",
        "group": "musson",
        "lat": -11.963830204366495,
        "lon": 28.721412415740772,
        "alt_km": 1008.5875935164859,
        "timestamp": "2025-12-20T09:36:01.915280+00:00",
        "meta_object_name": "COSMOS 2407",
        "meta_object_id": "2004-028A",
        "meta_epoch": "2025-12-19T20:30:35.407872",
        "meta_mean_motion": 13.76314495,
        "meta_eccentricity": 0.00400108,
        "meta_inclination": 82.9599,
        "meta_ra_of_asc_node": 207.6249,
        "meta_arg_of_pericenter": 35.4572,
        "meta_mean_anomaly": 335.2999,
        "meta_ephemeris_type": 0,
        "meta_classification_type": "U",
        "meta_norad_cat_id": 28380,
        "meta_element_set_no": 999,
        "meta_rev_at_epoch": 7521,
        "meta_bstar": 6.1812249e-05,
        "meta_mean_motion_dot": 7.6e-07,
        "meta_mean_motion_ddot": 0,
        "tle_line1": "1 28380U 04028A   25353.85457648  .00000076  00000+0  61812-4 0  9994",
        "tle_line2": "2 28380  82.9599 207.6249 0040010  35.4572 335.2999 13.76314495 75214"
      },
      "geometry": {
        "type": "Point",
        "coordinates": [
          28.721412415740772,
          -11.963830204366495
        ]
      }
    },
    {
      "type": "Feature",
      "properties": {
        "norad_id": 28521,
        "name": "COSMOS 2414",
        "group": "musson",
        "lat": 53.32091585468683,
        "lon": -171.5673669011644,
        "alt_km": 917.8098450878497,
        "timestamp": "2025-12-20T09:36:01.915291+00:00",
        "meta_object_name": "COSMOS 2414",
        "meta_object_id": "2005-002A",
        "meta_epoch": "2025-12-19T21:13:48.405792",
        "meta_mean_motion": 13.87903877,
        "meta_eccentricity": 0.00412423,
        "meta_inclination": 82.9488,
        "meta_ra_of_asc_node": 179.257,
        "meta_arg_of_pericenter": 119.7952,
        "meta_mean_anomaly": 240.7322,
        "meta_ephemeris_type": 0,
        "meta_classification_type": "U",
        "meta_norad_cat_id": 28521,
        "meta_element_set_no": 999,
        "meta_rev_at_epoch": 5894,
        "meta_bstar": 4.4947438e-05,
        "meta_mean_motion_dot": 7e-07,
        "meta_mean_motion_ddot": 0,
        "tle_line1": "1 28521U 05002A   25353.88458803  .00000070  00000+0  44947-4 0  9995",
        "tle_line2": "2 28521  82.9488 179.2570 0041242 119.7952 240.7322 13.87903877 58946"
      },
      "geometry": {
        "type": "Point",
        "coordinates": [
          -171.5673669011644,
          53.32091585468683
        ]
      }
    },
    {
      "type": "Feature",
      "properties": {
        "norad_id": 32052,
        "name": "COSMOS 2429",
        "group": "musson",
        "lat": -17.126106489250862,
        "lon": 159.8371963177002,
        "alt_km": 1014.5660868249515,
        "timestamp": "2025-12-20T09:36:01.915301+00:00",
        "meta_object_name": "COSMOS 2429",
        "meta_object_id": "2007-038A",
        "meta_epoch": "2025-12-19T22:10:04.648224",
        "meta_mean_motion": 13.75150119,
        "meta_eccentricity": 0.00388312,
        "meta_inclination": 82.9805,
        "meta_ra_of_asc_node": 338.0125,
        "meta_arg_of_pericenter": 18.16,
        "meta_mean_anomaly": 342.0932,
        "meta_ephemeris_type": 0,
        "meta_classification_type": "U",
        "meta_norad_cat_id": 32052,
        "meta_element_set_no": 999,
        "meta_rev_at_epoch": 91701,
        "meta_bstar": 3.813189e-05,
        "meta_mean_motion_dot": 5.2e-07,
        "meta_mean_motion_ddot": 0,
        "tle_line1": "1 32052U 07038A   25353.92366491  .00000052  00000+0  38132-4 0  9995",
        "tle_line2": "2 32052  82.9805 338.0125 0038831  18.1600 342.0932 13.75150119917011"
      },
      "geometry": {
        "type": "Point",
        "coordinates": [
          159.8371963177002,
          -17.126106489250862
        ]
      }
    },
    {
      "type": "Feature",
      "properties": {
        "norad_id": 35635,
        "name": "COSMOS 2454",
        "group": "musson",
        "lat": 19.132941682016714,
        "lon": -19.62059117930264,
        "alt_km": 933.4313647589097,
        "timestamp": "2025-12-20T09:36:01.915312+00:00",
        "meta_object_name": "COSMOS 2454",
        "meta_object_id": "2009-039A",
        "meta_epoch": "2025-12-20T00:46:45.983424",
        "meta_mean_motion": 13.89929547,
        "meta_eccentricity": 0.0020238,
        "meta_inclination": 82.9556,
        "meta_ra_of_asc_node": 163.1166,
        "meta_arg_of_pericenter": 54.2109,
        "meta_mean_anomaly": 68.1245,
        "meta_ephemeris_type": 0,
        "meta_classification_type": "U",
        "meta_norad_cat_id": 35635,
        "meta_element_set_no": 999,
        "meta_rev_at_epoch": 83251,
        "meta_bstar": 3.6626e-05,
        "meta_mean_motion_dot": 6.1e-07,
        "meta_mean_motion_ddot": 0,
        "tle_line1": "1 35635U 09039A   25354.03247666  .00000061  00000+0  36626-4 0  9999",
        "tle_line2": "2 35635  82.9556 163.1166 0020238  54.2109  68.1245 13.89929547832511"
      },
      "geometry": {
        "type": "Point",
        "coordinates": [
          -19.62059117930264,
          19.132941682016714
        ]
      }
    },
    {
      "type": "Feature",
      "properties": {
        "norad_id": 36519,
        "name": "COSMOS 2463",
        "group": "musson",
        "lat": 56.65733827007036,
        "lon": 31.907459558584577,
        "alt_km": 1010.6780200104213,
        "timestamp": "2025-12-20T09:36:01.915322+00:00",
        "meta_object_name": "COSMOS 2463",
        "meta_object_id": "2010-017A",
        "meta_epoch": "2025-12-20T04:24:02.126016",
        "meta_mean_motion": 13.71649756,
        "meta_eccentricity": 0.0034738,
        "meta_inclination": 82.9605,
        "meta_ra_of_asc_node": 21.2424,
        "meta_arg_of_pericenter": 266.6189,
        "meta_mean_anomaly": 161.2989,
        "meta_ephemeris_type": 0,
        "meta_classification_type": "U",
        "meta_norad_cat_id": 36519,
        "meta_element_set_no": 999,
        "meta_rev_at_epoch": 78339,
        "meta_bstar": 4.3115e-05,
        "meta_mean_motion_dot": 5.4e-07,
        "meta_mean_motion_ddot": 0,
        "tle_line1": "1 36519U 10017A   25354.18335794  .00000054  00000+0  43115-4 0  9998",
        "tle_line2": "2 36519  82.9605  21.2424 0034738 266.6189 161.2989 13.71649756783399"
      },
      "geometry": {
        "type": "Point",
        "coordinates": [
          31.907459558584577,
          56.65733827007036
        ]
      }
    }
  ]
}